TANSTAAFL-2             
1 62378U 24247B   26067.20753490  .00013897  00000+0  50872-3 0  9998
2 62378  44.9880 125.0934 0003072 298.8909  61.1666 15.28016845 67506
STARLINK-32771          
1 62573U 25006V   26068.02309429  .00051745  00000+0  18773-2 0  9996
2 62573  43.0037 296.0830 0001733 261.5272  98.5383 15.27570328 64768
